[{"OBJECT_NAME":"STARLINK-32435","OBJECT_ID":"2024-175S","EPOCH":"2026-03-09T15:19:26.594400","MEAN_MOTION":15.30189251,"ECCENTRICITY":0.0001028,"INCLINATION":53.16,"RA_OF_ASC_NODE":194.431,"ARG_OF_PERICENTER":88.3553,"MEAN_ANOMALY":271.7566,"EPHEMERIS_TYPE":0,"CLASSIFICATION_TYPE":"U","NORAD_CAT_ID":61259,"ELEMENT_SET_NO":999,"REV_AT_EPOCH":8144,"BSTAR":-1.1637e-5,"MEAN_MOTION_DOT":-7.03e-6,"MEAN_MOTION_DDOT":0},{"OBJECT_NAME":"COSMOS 2588","OBJECT_ID":"2025-109A","EPOCH":"2026-03-09T19:28:59.107008","MEAN_MOTION":15.29122656,"ECCENTRICITY":0.0005019,"INCLINATION":72.9704,"RA_OF_ASC_NODE":73.5401,"ARG_OF_PERICENTER":308.678,"MEAN_ANOMALY":51.3966,"EPHEMERIS_TYPE":0,"CLASSIFICATION_TYPE":"U","NORAD_CAT_ID":64095,"ELEMENT_SET_NO":999,"REV_AT_EPOCH":4442,"BSTAR":0.00032611,"MEAN_MOTION_DOT":9.169e-5,"MEAN_MOTION_DDOT":0}]
