STARLINK-32435          
1 61259U 24175S   26068.63850225 -.00000703  00000+0 -11637-4 0  9998
2 61259  53.1600 194.4310 0001028  88.3553 271.7566 15.30189251 81441
COSMOS 2588             
1 64095U 25109A   26068.81179522  .00009169  00000+0  32611-3 0  9998
2 64095  72.9704  73.5401 0005019 308.6780  51.3966 15.29122656 44425
